{
    "CCSDS_OMM_VERS": "3.0",
    "COMMENT": "GENERATED VIA SPACE-TRACK.ORG API",
    "CREATION_DATE": "2025-05-23T14:36:33",
    "ORIGINATOR": "18 SPCS",
    "OBJECT_NAME": "BEIDOU 3 IGSO-1",
    "OBJECT_ID": "2019-023A",
    "CENTER_NAME": "EARTH",
    "REF_FRAME": "TEME",
    "TIME_SYSTEM": "UTC",
    "MEAN_ELEMENT_THEORY": "SGP4",
    "EPOCH": "2025-05-23T11:47:13.180128",
    "MEAN_MOTION": "1.00252610",
    "ECCENTRICITY": "0.00203280",
    "INCLINATION": "58.1415",
    "RA_OF_ASC_NODE": "41.6765",
    "ARG_OF_PERICENTER": "224.2003",
    "MEAN_ANOMALY": "268.6224",
    "EPHEMERIS_TYPE": "0",
    "CLASSIFICATION_TYPE": "U",
    "NORAD_CAT_ID": "44204",
    "ELEMENT_SET_NO": "999",
    "REV_AT_EPOCH": "2245",
    "BSTAR": "0.00000000000000",
    "MEAN_MOTION_DOT": "-0.00000239",
    "MEAN_MOTION_DDOT": "0.0000000000000",
    "SEMIMAJOR_AXIS": "42170.108",
    "PERIOD": "1436.372",
    "APOAPSIS": "35877.697",
    "PERIAPSIS": "35706.250",
    "OBJECT_TYPE": "PAYLOAD",
    "RCS_SIZE": "LARGE",
    "COUNTRY_CODE": "PRC",
    "LAUNCH_DATE": "2019-04-20",
    "SITE": "XSC",
    "DECAY_DATE": null,
    "FILE": "4736933",
    "GP_ID": "288174203",
    "TLE_LINE0": "0 BEIDOU 3 IGSO-1",
    "TLE_LINE1": "1 44204U 19023A   25143.49112477 -.00000239  00000-0  00000+0 0  9993",
    "TLE_LINE2": "2 44204  58.1415  41.6765 0020328 224.2003 268.6224  1.00252610 22457"
}